{
  "type": "FeatureCollection",
  "features": [
    {
      "type": "Feature",
      "properties": {
        "norad_id": 66968,
        "name": "STARLINK-36152",
        "group": "last-30-days",
        "lat": 34.51286085730968,
        "lon": -137.65770006471575,
        "alt_km": 369.08416199691055,
        "timestamp": "2025-12-25T09:48:51.007290+00:00",
        "meta_object_name": "STARLINK-36152",
        "meta_object_id": "2025-288K",
        "meta_epoch": "2025-12-25T04:00:01.998720",
        "meta_mean_motion": 15.65942007,
        "meta_eccentricity": 0.0001252,
        "meta_inclination": 43.0004,
        "meta_ra_of_asc_node": 91.3439,
        "meta_arg_of_pericenter": 269.817,
        "meta_mean_anomaly": 287.1796,
        "meta_ephemeris_type": 0,
        "meta_classification_type": "U",
        "meta_norad_cat_id": 66968,
        "meta_element_set_no": 999,
        "meta_rev_at_epoch": 382,
        "meta_bstar": -0.021547,
        "meta_mean_motion_dot": -0.01990339,
        "meta_mean_motion_ddot": 0,
        "tle_line1": "1 66968U 25288K   25359.16668980 -.01990339  00000+0 -21547-1 0  9993",
        "tle_line2": "2 66968  43.0004  91.3439 0001252 269.8170 287.1796 15.65942007  3822"
      },
      "geometry": {
        "type": "Point",
        "coordinates": [
          -137.65770006471575,
          34.51286085730968
        ]
      }
    },
    {
      "type": "Feature",
      "properties": {
        "norad_id": 66969,
        "name": "STARLINK-36149",
        "group": "last-30-days",
        "lat": 29.700900391880747,
        "lon": -127.87250418162053,
        "alt_km": 369.7823340857767,
        "timestamp": "2025-12-25T09:48:51.007300+00:00",
        "meta_object_name": "STARLINK-36149",
        "meta_object_id": "2025-288L",
        "meta_epoch": "2025-12-25T04:00:01.998720",
        "meta_mean_motion": 15.65944236,
        "meta_eccentricity": 0.0001264,
        "meta_inclination": 43.0005,
        "meta_ra_of_asc_node": 91.3197,
        "meta_arg_of_pericenter": 270.9306,
        "meta_mean_anomaly": 295.6508,
        "meta_ephemeris_type": 0,
        "meta_classification_type": "U",
        "meta_norad_cat_id": 66969,
        "meta_element_set_no": 999,
        "meta_rev_at_epoch": 382,
        "meta_bstar": -0.021587,
        "meta_mean_motion_dot": -0.01993725,
        "meta_mean_motion_ddot": 0,
        "tle_line1": "1 66969U 25288L   25359.16668980 -.01993725  00000+0 -21587-1 0  9990",
        "tle_line2": "2 66969  43.0005  91.3197 0001264 270.9306 295.6508 15.65944236  3823"
      },
      "geometry": {
        "type": "Point",
        "coordinates": [
          -127.87250418162053,
          29.700900391880747
        ]
      }
    },
    {
      "type": "Feature",
      "properties": {
        "norad_id": 66970,
        "name": "STARLINK-35703",
        "group": "last-30-days",
        "lat": 25.372915644336732,
        "lon": -120.74195279858408,
        "alt_km": 370.27113223371634,
        "timestamp": "2025-12-25T09:48:51.007313+00:00",
        "meta_object_name": "STARLINK-35703",
        "meta_object_id": "2025-288M",
        "meta_epoch": "2025-12-25T04:00:01.998720",
        "meta_mean_motion": 15.65943244,
        "meta_eccentricity": 0.0001207,
        "meta_inclination": 43.0005,
        "meta_ra_of_asc_node": 91.3001,
        "meta_arg_of_pericenter": 264.9976,
        "meta_mean_anomaly": 309.2515,
        "meta_ephemeris_type": 0,
        "meta_classification_type": "U",
        "meta_norad_cat_id": 66970,
        "meta_element_set_no": 999,
        "meta_rev_at_epoch": 382,
        "meta_bstar": -0.021536,
        "meta_mean_motion_dot": -0.01989484,
        "meta_mean_motion_ddot": 0,
        "tle_line1": "1 66970U 25288M   25359.16668980 -.01989484  00000+0 -21536-1 0  9993",
        "tle_line2": "2 66970  43.0005  91.3001 0001207 264.9976 309.2515 15.65943244  3820"
      },
      "geometry": {
        "type": "Point",
        "coordinates": [
          -120.74195279858408,
          25.372915644336732
        ]
      }
    },
    {
      "type": "Feature",
      "properties": {
        "norad_id": 66971,
        "name": "STARLINK-35678",
        "group": "last-30-days",
        "lat": 33.6126891990905,
        "lon": -135.61565292042982,
        "alt_km": 369.05316138930266,
        "timestamp": "2025-12-25T09:48:51.007323+00:00",
        "meta_object_name": "STARLINK-35678",
        "meta_object_id": "2025-288N",
        "meta_epoch": "2025-12-25T04:00:01.998720",
        "meta_mean_motion": 15.65942124,
        "meta_eccentricity": 0.0001129,
        "meta_inclination": 43.0002,
        "meta_ra_of_asc_node": 91.3402,
        "meta_arg_of_pericenter": 261.9389,
        "meta_mean_anomaly": 296.9755,
        "meta_ephemeris_type": 0,
        "meta_classification_type": "U",
        "meta_norad_cat_id": 66971,
        "meta_element_set_no": 999,
        "meta_rev_at_epoch": 382,
        "meta_bstar": -0.021535,
        "meta_mean_motion_dot": -0.01989231,
        "meta_mean_motion_ddot": 0,
        "tle_line1": "1 66971U 25288N   25359.16668980 -.01989231  00000+0 -21535-1 0  9993",
        "tle_line2": "2 66971  43.0002  91.3402 0001129 261.9389 296.9755 15.65942124  3825"
      },
      "geometry": {
        "type": "Point",
        "coordinates": [
          -135.61565292042982,
          33.6126891990905
        ]
      }
    },
    {
      "type": "Feature",
      "properties": {
        "norad_id": 66972,
        "name": "STARLINK-34846",
        "group": "last-30-days",
        "lat": 32.680669397639825,
        "lon": -133.61970428539723,
        "alt_km": 369.30633205125287,
        "timestamp": "2025-12-25T09:48:51.007333+00:00",
        "meta_object_name": "STARLINK-34846",
        "meta_object_id": "2025-288P",
        "meta_epoch": "2025-12-25T04:00:01.998720",
        "meta_mean_motion": 15.65946723,
        "meta_eccentricity": 0.0001276,
        "meta_inclination": 43.0003,
        "meta_ra_of_asc_node": 91.3352,
        "meta_arg_of_pericenter": 266.4434,
        "meta_mean_anomaly": 294.3833,
        "meta_ephemeris_type": 0,
        "meta_classification_type": "U",
        "meta_norad_cat_id": 66972,
        "meta_element_set_no": 999,
        "meta_rev_at_epoch": 382,
        "meta_bstar": -0.021578,
        "meta_mean_motion_dot": -0.01993215,
        "meta_mean_motion_ddot": 0,
        "tle_line1": "1 66972U 25288P   25359.16668980 -.01993215  00000+0 -21578-1 0  9998",
        "tle_line2": "2 66972  43.0003  91.3352 0001276 266.4434 294.3833 15.65946723  3823"
      },
      "geometry": {
        "type": "Point",
        "coordinates": [
          -133.61970428539723,
          32.680669397639825
        ]
      }
    },
    {
      "type": "Feature",
      "properties": {
        "norad_id": 66973,
        "name": "STARLINK-35778",
        "group": "last-30-days",
        "lat": 31.71578466353115,
        "lon": -131.6625123751683,
        "alt_km": 369.40975576271285,
        "timestamp": "2025-12-25T09:48:51.007343+00:00",
        "meta_object_name": "STARLINK-35778",
        "meta_object_id": "2025-288Q",
        "meta_epoch": "2025-12-25T04:00:01.998720",
        "meta_mean_motion": 15.6594374,
        "meta_eccentricity": 0.000122,
        "meta_inclination": 43.0002,
        "meta_ra_of_asc_node": 91.3303,
        "meta_arg_of_pericenter": 265.9655,
        "meta_mean_anomaly": 296.7813,
        "meta_ephemeris_type": 0,
        "meta_classification_type": "U",
        "meta_norad_cat_id": 66973,
        "meta_element_set_no": 999,
        "meta_rev_at_epoch": 382,
        "meta_bstar": -0.021549,
        "meta_mean_motion_dot": -0.01990557,
        "meta_mean_motion_ddot": 0,
        "tle_line1": "1 66973U 25288Q   25359.16668980 -.01990557  00000+0 -21549-1 0  9993",
        "tle_line2": "2 66973  43.0002  91.3303 0001220 265.9655 296.7813 15.65943740  3827"
      },
      "geometry": {
        "type": "Point",
        "coordinates": [
          -131.6625123751683,
          31.71578466353115
        ]
      }
    },
    {
      "type": "Feature",
      "properties": {
        "norad_id": 66974,
        "name": "STARLINK-35780",
        "group": "last-30-days",
        "lat": 30.7224815632812,
        "lon": -129.74776616687782,
        "alt_km": 369.5342603171648,
        "timestamp": "2025-12-25T09:48:51.007374+00:00",
        "meta_object_name": "STARLINK-35780",
        "meta_object_id": "2025-288R",
        "meta_epoch": "2025-12-25T04:00:01.998720",
        "meta_mean_motion": 15.65944965,
        "meta_eccentricity": 0.0001214,
        "meta_inclination": 43.0002,
        "meta_ra_of_asc_node": 91.3257,
        "meta_arg_of_pericenter": 265.2398,
        "meta_mean_anomaly": 299.4231,
        "meta_ephemeris_type": 0,
        "meta_classification_type": "U",
        "meta_norad_cat_id": 66974,
        "meta_element_set_no": 999,
        "meta_rev_at_epoch": 382,
        "meta_bstar": -0.021562,
        "meta_mean_motion_dot": -0.01991688,
        "meta_mean_motion_ddot": 0,
        "tle_line1": "1 66974U 25288R   25359.16668980 -.01991688  00000+0 -21562-1 0  9995",
        "tle_line2": "2 66974  43.0002  91.3257 0001214 265.2398 299.4231 15.65944965  3820"
      },
      "geometry": {
        "type": "Point",
        "coordinates": [
          -129.74776616687782,
          30.7224815632812
        ]
      }
    }
  ]
}